sat44909
1 44909U 19096E   20046.84677318  .00000012  00000-0  00000-0 0  9990
2 44909  82.5187  76.7799 0216984 152.6473 208.6259 12.79704394  6501
